start=new Date('2023-05-21T00:00:00.000Z').valueOf();
sats=[{"GP_ID":"232207623","MEAN_MOTION":"15.06445143","SITE":"AFETR","FILE":"3913175","ECCENTRICITY":"0.00010450","INCLINATION":"53.0543","DECAY_DATE":null,"RCS_SIZE":"LARGE","CENTER_NAME":"EARTH","ELEMENT_SET_NO":"999","OBJECT_NAME":"STARLINK-2555","OBJECT_TYPE":"PAYLOAD","PERIAPSIS":"546.352","MEAN_MOTION_DOT":"0.00020847","ARG_OF_PERICENTER":"87.7733","COUNTRY_CODE":"US","APOAPSIS":"547.799","NORAD_CAT_ID":"48291","LAUNCH_DATE":"2021-04-29","MEAN_ANOMALY":"272.3376","REV_AT_EPOCH":"11400","SEMIMAJOR_AXIS":"6925.210","REF_FRAME":"TEME","RA_OF_ASC_NODE":"357.5803","TIME_SYSTEM":"UTC","CLASSIFICATION_TYPE":"U","MEAN_ELEMENT_THEORY":"SGP4","BSTAR":"0.00141260000000","TLE_LINE1":"1 48291U 21036R   23140.90259907  .00020847  00000-0  14126-2 0  9994","MEAN_MOTION_DDOT":"0.0000000000000","OBJECT_ID":"2021-036R","PERIOD":"95.589","EPHEMERIS_TYPE":"0","TLE_LINE2":"2 48291  53.0543 357.5803 0001045  87.7733 272.3376 15.06445143114001","EPOCH":"2023-05-20T21:39:44.559648"},{"CLASSIFICATION_TYPE":"U","MEAN_ELEMENT_THEORY":"SGP4","TLE_LINE1":"1 48292U 21036S   23140.84733214  .00021827  00000-0  14781-2 0  9992","MEAN_MOTION_DDOT":"0.0000000000000","BSTAR":"0.00147810000000","OBJECT_ID":"2021-036S","PERIOD":"95.590","EPHEMERIS_TYPE":"0","TLE_LINE2":"2 48292  53.0543 357.9880 0001180  79.5799 280.5323 15.06440276113994","EPOCH":"2023-05-20T20:20:09.496896","COUNTRY_CODE":"US","NORAD_CAT_ID":"48292","APOAPSIS":"547.907","LAUNCH_DATE":"2021-04-29","MEAN_ANOMALY":"280.5323","REV_AT_EPOCH":"11399","SEMIMAJOR_AXIS":"6925.225","REF_FRAME":"TEME","RA_OF_ASC_NODE":"357.9880","TIME_SYSTEM":"UTC","OBJECT_TYPE":"PAYLOAD","PERIAPSIS":"546.273","MEAN_MOTION_DOT":"0.00021827","ARG_OF_PERICENTER":"79.5799","GP_ID":"232207873","MEAN_MOTION":"15.06440276","SITE":"AFETR","FILE":"3913175","INCLINATION":"53.0543","ECCENTRICITY":"0.00011800","DECAY_DATE":null,"RCS_SIZE":"LARGE","CENTER_NAME":"EARTH","ELEMENT_SET_NO":"999","OBJECT_NAME":"STARLINK-2542"},{"ARG_OF_PERICENTER":"81.6957","MEAN_MOTION_DOT":"0.00027756","PERIAPSIS":"546.227","OBJECT_TYPE":"PAYLOAD","OBJECT_NAME":"STARLINK-2550","ELEMENT_SET_NO":"999","DECAY_DATE":null,"RCS_SIZE":"LARGE","CENTER_NAME":"EARTH","INCLINATION":"53.0553","ECCENTRICITY":"0.00011390","SITE":"AFETR","FILE":"3913175","MEAN_MOTION":"15.06464402","GP_ID":"232208620","EPOCH":"2023-05-20T21:29:06.308160","TLE_LINE2":"2 48293  53.0553 357.6085 0001139  81.6957 278.4161 15.06464402114000","EPHEMERIS_TYPE":"0","OBJECT_ID":"2021-036T","PERIOD":"95.588","BSTAR":"0.00187170000000","TLE_LINE1":"1 48293U 21036T   23140.89521190  .00027756  00000-0  18717-2 0  9996","MEAN_MOTION_DDOT":"0.0000000000000","MEAN_ELEMENT_THEORY":"SGP4","CLASSIFICATION_TYPE":"U","RA_OF_ASC_NODE":"357.6085","TIME_SYSTEM":"UTC","REF_FRAME":"TEME","MEAN_ANOMALY":"278.4161","SEMIMAJOR_AXIS":"6925.151","REV_AT_EPOCH":"11400","LAUNCH_DATE":"2021-04-29","COUNTRY_CODE":"US","APOAPSIS":"547.805","NORAD_CAT_ID":"48293"},{"ECCENTRICITY":"0.00010310","INCLINATION":"53.0545","RCS_SIZE":"LARGE","CENTER_NAME":"EARTH","DECAY_DATE":null,"MEAN_MOTION":"15.06439662","GP_ID":"232208869","FILE":"3913175","SITE":"AFETR","OBJECT_NAME":"STARLINK-2533","ELEMENT_SET_NO":"999","PERIAPSIS":"546.378","OBJECT_TYPE":"PAYLOAD","ARG_OF_PERICENTER":"84.3903","MEAN_MOTION_DOT":"0.00011243","APOAPSIS":"547.806","NORAD_CAT_ID":"48294","COUNTRY_CODE":"US","LAUNCH_DATE":"2021-04-29","TIME_SYSTEM":"UTC","RA_OF_ASC_NODE":"357.6279","REV_AT_EPOCH":"11400","SEMIMAJOR_AXIS":"6925.227","MEAN_ANOMALY":"275.7203","REF_FRAME":"TEME","BSTAR":"0.00077167000000","TLE_LINE1":"1 48294U 21036U   23140.89153693  .00011243  00000-0  77167-3 0  9995","MEAN_MOTION_DDOT":"0.0000000000000","CLASSIFICATION_TYPE":"U","MEAN_ELEMENT_THEORY":"SGP4","TLE_LINE2":"2 48294  53.0545 357.6279 0001031  84.3903 275.7203 15.06439662114006","EPOCH":"2023-05-20T21:23:48.790752","PERIOD":"95.590","OBJECT_ID":"2021-036U","EPHEMERIS_TYPE":"0"},{"LAUNCH_DATE":"2021-04-29","COUNTRY_CODE":"US","APOAPSIS":"547.868","NORAD_CAT_ID":"48295","REF_FRAME":"TEME","MEAN_ANOMALY":"280.6624","SEMIMAJOR_AXIS":"6925.198","REV_AT_EPOCH":"11400","RA_OF_ASC_NODE":"357.6406","TIME_SYSTEM":"UTC","MEAN_ELEMENT_THEORY":"SGP4","CLASSIFICATION_TYPE":"U","MEAN_MOTION_DDOT":"0.0000000000000","TLE_LINE1":"1 48295U 21036V   23140.88785377  .00025855  00000-0  17460-2 0  9998","BSTAR":"0.00174600000000","EPHEMERIS_TYPE":"0","PERIOD":"95.589","OBJECT_ID":"2021-036V","EPOCH":"2023-05-20T21:18:30.565728","TLE_LINE2":"2 48295  53.0555 357.6406 0001163  79.4496 280.6624 15.06449096114002","SITE":"AFETR","FILE":"3913175","GP_ID":"232207124","MEAN_MOTION":"15.06449096","DECAY_DATE":null,"RCS_SIZE":"LARGE","CENTER_NAME":"EARTH","INCLINATION":"53.0555","ECCENTRICITY":"0.00011630","ELEMENT_SET_NO":"999","OBJECT_NAME":"STARLINK-2535","OBJECT_TYPE":"PAYLOAD","PERIAPSIS":"546.258","MEAN_MOTION_DOT":"0.00025855","ARG_OF_PERICENTER":"79.4496"},{"LAUNCH_DATE":"2021-04-29","NORAD_CAT_ID":"48296","APOAPSIS":"547.736","COUNTRY_CODE":"US","TIME_SYSTEM":"UTC","RA_OF_ASC_NODE":"357.6600","REF_FRAME":"TEME","SEMIMAJOR_AXIS":"6925.209","REV_AT_EPOCH":"11400","MEAN_ANOMALY":"285.4305","MEAN_MOTION_DDOT":"0.0000000000000","TLE_LINE1":"1 48296U 21036W   23140.88417122  .00026050  00000-0  17591-2 0  9992","BSTAR":"0.00175910000000","MEAN_ELEMENT_THEORY":"SGP4","CLASSIFICATION_TYPE":"U","EPOCH":"2023-05-20T21:13:12.393408","TLE_LINE2":"2 48296  53.0545 357.6600 0000956  74.6789 285.4305 15.06445661114002","EPHEMERIS_TYPE":"0","OBJECT_ID":"2021-036W","PERIOD":"95.589","RCS_SIZE":"LARGE","CENTER_NAME":"EARTH","DECAY_DATE":null,"ECCENTRICITY":"0.00009560","INCLINATION":"53.0545","FILE":"3913175","SITE":"AFETR","GP_ID":"232207374","MEAN_MOTION":"15.06445661","OBJECT_NAME":"STARLINK-2546","ELEMENT_SET_NO":"999","OBJECT_TYPE":"PAYLOAD","PERIAPSIS":"546.412","ARG_OF_PERICENTER":"74.6789","MEAN_MOTION_DOT":"0.00026050"},{"LAUNCH_DATE":"2021-04-29","APOAPSIS":"547.788","NORAD_CAT_ID":"48297","COUNTRY_CODE":"US","TIME_SYSTEM":"UTC","RA_OF_ASC_NODE":"357.6743","REF_FRAME":"TEME","SEMIMAJOR_AXIS":"6925.184","REV_AT_EPOCH":"11400","MEAN_ANOMALY":"274.4787","TLE_LINE1":"1 48297U 21036X   23140.88048123  .00026751  00000-0  18054-2 0  9997","BSTAR":"0.00180540000000","MEAN_MOTION_DDOT":"0.0000000000000","MEAN_ELEMENT_THEORY":"SGP4","CLASSIFICATION_TYPE":"U","EPOCH":"2023-05-20T21:07:53.578272","TLE_LINE2":"2 48297  53.0547 357.6743 0001067  85.6324 274.4787 15.06453644114006","EPHEMERIS_TYPE":"0","OBJECT_ID":"2021-036X","PERIOD":"95.589","CENTER_NAME":"EARTH","RCS_SIZE":"LARGE","DECAY_DATE":null,"INCLINATION":"53.0547","ECCENTRICITY":"0.00010670","FILE":"3913175","SITE":"AFETR","GP_ID":"232208121","MEAN_MOTION":"15.06453644","OBJECT_NAME":"STARLINK-2544","ELEMENT_SET_NO":"999","OBJECT_TYPE":"PAYLOAD","PERIAPSIS":"546.310","ARG_OF_PERICENTER":"85.6324","MEAN_MOTION_DOT":"0.00026751"},{"MEAN_ELEMENT_THEORY":"SGP4","CLASSIFICATION_TYPE":"U","MEAN_MOTION_DDOT":"0.0000000000000","TLE_LINE1":"1 48298U 21036Y   23140.81045328  .00022533  00000-0  15250-2 0  9994","BSTAR":"0.00152500000000","EPHEMERIS_TYPE":"0","PERIOD":"95.589","OBJECT_ID":"2021-036Y","EPOCH":"2023-05-20T19:27:03.163392","TLE_LINE2":"2 48298  53.0535 357.9896 0001233  83.4988 276.6142 15.06443428113998","LAUNCH_DATE":"2021-04-29","NORAD_CAT_ID":"48298","APOAPSIS":"547.934","COUNTRY_CODE":"US","REF_FRAME":"TEME","REV_AT_EPOCH":"11399","SEMIMAJOR_AXIS":"6925.215","MEAN_ANOMALY":"276.6142","TIME_SYSTEM":"UTC","RA_OF_ASC_NODE":"357.9896","OBJECT_TYPE":"PAYLOAD","PERIAPSIS":"546.227","MEAN_MOTION_DOT":"0.00022533","ARG_OF_PERICENTER":"83.4988","FILE":"3913175","SITE":"AFETR","MEAN_MOTION":"15.06443428","GP_ID":"232208370","CENTER_NAME":"EARTH","RCS_SIZE":"LARGE","DECAY_DATE":null,"ECCENTRICITY":"0.00012330","INCLINATION":"53.0535","ELEMENT_SET_NO":"999","OBJECT_NAME":"STARLINK-2559"},{"PERIAPSIS":"546.273","OBJECT_TYPE":"PAYLOAD","MEAN_MOTION_DOT":"0.00021889","ARG_OF_PERICENTER":"87.9787","MEAN_MOTION":"15.06445713","GP_ID":"232207624","FILE":"3913175","SITE":"AFETR","ECCENTRICITY":"0.00011560","INCLINATION":"53.0540","RCS_SIZE":"LARGE","CENTER_NAME":"EARTH","DECAY_DATE":null,"ELEMENT_SET_NO":"999","OBJECT_NAME":"STARLINK-2557","CLASSIFICATION_TYPE":"U","MEAN_ELEMENT_THEORY":"SGP4","BSTAR":"0.00148200000000","TLE_LINE1":"1 48299U 21036Z   23140.87310817  .00021889  00000-0  14820-2 0  9994","MEAN_MOTION_DDOT":"0.0000000000000","OBJECT_ID":"2021-036Z","PERIOD":"95.589","EPHEMERIS_TYPE":"0","TLE_LINE2":"2 48299  53.0540 357.7118 0001156  87.9787 272.1334 15.06445713114006","EPOCH":"2023-05-20T20:57:16.545888","APOAPSIS":"547.874","NORAD_CAT_ID":"48299","COUNTRY_CODE":"US","LAUNCH_DATE":"2021-04-29","REV_AT_EPOCH":"11400","SEMIMAJOR_AXIS":"6925.208","MEAN_ANOMALY":"272.1334","REF_FRAME":"TEME","TIME_SYSTEM":"UTC","RA_OF_ASC_NODE":"357.7118"},{"ELEMENT_SET_NO":"999","OBJECT_NAME":"STARLINK-2538","MEAN_MOTION":"15.06448821","GP_ID":"232207874","SITE":"AFETR","FILE":"3913175","ECCENTRICITY":"0.00006400","INCLINATION":"53.0544","DECAY_DATE":null,"RCS_SIZE":"LARGE","CENTER_NAME":"EARTH","MEAN_MOTION_DOT":"0.00025384","ARG_OF_PERICENTER":"89.5754","OBJECT_TYPE":"PAYLOAD","PERIAPSIS":"546.621","MEAN_ANOMALY":"270.5308","SEMIMAJOR_AXIS":"6925.199","REV_AT_EPOCH":"11387","REF_FRAME":"TEME","RA_OF_ASC_NODE":"7.4520","TIME_SYSTEM":"UTC","COUNTRY_CODE":"US","NORAD_CAT_ID":"48300","APOAPSIS":"547.507","LAUNCH_DATE":"2021-04-29","OBJECT_ID":"2021-036AA","PERIOD":"95.589","EPHEMERIS_TYPE":"0","TLE_LINE2":"2 48300  53.0544   7.4520 0000640  89.5754 270.5308 15.06448821113878","EPOCH":"2023-05-20T22:20:52.249056","CLASSIFICATION_TYPE":"U","MEAN_ELEMENT_THEORY":"SGP4","MEAN_MOTION_DDOT":"0.0000000000000","TLE_LINE1":"1 48300U 21036AA  23140.93116029  .00025384  00000-0  17146-2 0  9991","BSTAR":"0.00171460000000"}];
